ATLAS CENTAUR 2         
1 00694U 63047A   25158.75896242  .00002985  00000+0  35648-3 0  9995
2 00694  30.3555 290.4211 0552877 179.9815 180.0865 14.10720719 92758
THOR AGENA D R/B        
1 00733U 64002A   25158.73439673  .00000255  00000+0  10876-3 0  9994
2 00733  99.1129 152.2246 0032688 340.7989  19.1960 14.33819802198895
SL-3 R/B                
1 00877U 64053B   25158.96770550  .00000219  00000+0  67892-4 0  9997
2 00877  65.0784  56.4238 0053612  33.0963 327.3472 14.61083267226650
SL-8 R/B                
1 02802U 67045B   25159.09191399  .00000217  00000+0  68184-4 0  9997
2 02802  74.0099 140.8037 0065356 215.3106 144.3715 14.45371576 49448
SL-8 R/B                
1 03230U 68040B   25159.10243248  .00002093  00000+0  16606-3 0  9997
2 03230  74.0300 153.7028 0024172  44.2803 316.0313 15.01040688 70026
OAO 2                   
1 03597U 68110A   25158.84743044  .00000207  00000+0  61226-4 0  9994
2 03597  34.9950 359.4727 0005249 161.8280 198.2599 14.47114168979295
ISIS 1                  
1 03669U 69009A   25158.78710343  .00000103  00000+0  76792-4 0  9990
2 03669  88.4514 185.2766 1706821 284.1495  57.6431 11.30271766317471
SERT 2                  
1 04327U 70009A   25158.80009351 -.00000012  00000+0  39556-4 0  9994
2 04327  99.2391 112.4667 0005337 138.6192 238.1400 13.58695679742567
SL-3 R/B                
1 05118U 71028B   25159.11964573  .00014458  00000+0  30246-3 0  9990
2 05118  81.2436  26.1927 0024617 174.1004 186.0536 15.44994873946388
ASTEX 1                 
1 05560U 71089A   25158.71616436  .00000425  00000+0  10910-3 0  9990
2 05560  92.7246  62.7865 0013621 297.8174  62.1651 14.50397328822446
SL-8 R/B                
1 05730U 71119B   25159.00442954  .00004734  00000+0  25588-3 0  9992
2 05730  73.8888 326.7767 0571247 349.4678   9.4894 14.32627294616089
OAO 3 (COPERNICUS)      
1 06153U 72065A   25158.92841950  .00000305  00000+0  67415-4 0  9998
2 06153  35.0065  62.3541 0005887  72.0861 344.3570 14.59717383806029
ATLAS CENTAUR R/B       
1 06155U 72065B   25158.87793621  .00000857  00000+0  12234-3 0  9995
2 06155  35.0009 115.0108 0034862 219.6138 140.2013 14.76773132800601
SL-8 R/B                
1 08459U 75112B   25159.14233698  .00000290  00000+0  10455-3 0  9998
2 08459  74.0591 163.8810 0016526 320.0376  39.9560 14.38016163592610
SL-3 R/B                
1 10114U 77057B   25158.95446777  .00006756  00000+0  17932-3 0  9991
2 10114  97.5524 315.9156 0008399 182.4555 177.6650 15.38608580626000
SEASAT 1                
1 10967U 78064A   25158.91906420  .00000270  00000+0  11468-3 0  9991
2 10967 108.0050 269.1167 0001205 230.9150 129.1888 14.45837500466795
SL-14 R/B               
1 11267U 79011B   25158.95372117  .00000465  00000+0  43884-4 0  9996
2 11267  82.5241 357.1179 0014601 253.8344 106.1269 14.91480344487827
SL-8 R/B                
1 11574U 79089B   25158.92178682  .00000193  00000+0  66642-4 0  9995
2 11574  74.0689 239.5517 0014725 123.4835 236.7731 14.42137130396497
SL-14 R/B               
1 11672U 80005B   25158.85314491  .00000462  00000+0  44678-4 0  9990
2 11672  82.5149 207.8155 0015885   5.7169 354.4228 14.90502145435541
SL-8 R/B                
1 12139U 81003B   25158.77108975  .00018078  00000+0  53261-3 0  9996
2 12139  82.9326 182.0409 0305711  46.9974 315.6435 14.99571487273338
SL-3 R/B                
1 12465U 81046B   25159.14161090  .00007345  00000+0  21233-3 0  9993
2 12465  81.2349 257.4377 0021230 250.7157 109.1786 15.35244368409306
METEOR PRIRODA          
1 12585U 81065A   25158.86131561  .00044201  00000+0  40395-3 0  9997
2 12585  97.4876 210.2401 0006154 188.1000 172.0162 15.67701568401064
SL-3 R/B                
1 12904U 81103B   25159.17742798  .00003502  00000+0  16982-3 0  9994
2 12904  81.1592 174.5470 0019140 142.5009 217.7560 15.18094438931776
SL-3 R/B                
1 13068U 82013B   25158.89786087  .00003725  00000+0  17437-3 0  9997
2 13068  81.1743 122.1271 0024096  28.5519 331.7025 15.19225830362593
SL-3 R/B                
1 13154U 82039B   25159.15348299  .00001910  00000+0  12034-3 0  9992
2 13154  81.1768 171.4384 0035306 135.8109 224.5945 15.08169650340503
SL-3 R/B                
1 13403U 82079B   25159.14645292  .00004667  00000+0  20571-3 0  9992
2 13403  81.1459 156.3237 0026611  16.5350 343.6743 15.21279247336130
SL-14 R/B               
1 13553U 82092B   25159.15255433  .00000385  00000+0  40770-4 0  9995
2 13553  82.5692  38.1415 0021723 128.9815  35.2217 14.86315927309224
SL-3 R/B                
1 13819U 83010B   25158.98577028  .00008041  00000+0  21094-3 0  9992
2 13819  81.1059 336.7369 0018488 282.9683  76.9492 15.38324734315963
COSMOS 1455             
1 14032U 83037A   25158.76053165  .00092851  00000+0  54166-3 0  9994
2 14032  82.4951  55.7113 0008297 107.8432 252.3739 15.78068983304940
SL-3 R/B                
1 14208U 83075B   25159.21070679  .00007496  00000+0  24299-3 0  9996
2 14208  97.5991 150.1783 0026893 124.5083 235.8703 15.31947248288340
COSMOS 1500             
1 14372U 83099A   25157.91887542  .01066983 -11937-5  63883-3 0  9991
2 14372  82.4735 305.6942 0010790 258.2300 229.6039 16.18309789281907
